[{"OBJECT_NAME":"ONEWEB-0179","OBJECT_ID":"2021-031C","EPOCH":"2025-12-15T05:19:52.282560","MEAN_MOTION":13.1450332,"ECCENTRICITY":0.00015416,"INCLINATION":87.9002,"RA_OF_ASC_NODE":326.3409,"ARG_OF_PERICENTER":88.4863,"MEAN_ANOMALY":271.6443,"EPHEMERIS_TYPE":0,"CLASSIFICATION_TYPE":"U","NORAD_CAT_ID":48212,"ELEMENT_SET_NO":999,"REV_AT_EPOCH":22416,"BSTAR":9.1017881e-5,"MEAN_MOTION_DOT":4.7e-7,"MEAN_MOTION_DDOT":0},{"OBJECT_NAME":"ONEWEB-0180","OBJECT_ID":"2021-031D","EPOCH":"2025-12-15T07:56:17.194848","MEAN_MOTION":13.14503084,"ECCENTRICITY":0.00015341,"INCLINATION":87.9004,"RA_OF_ASC_NODE":326.3172,"ARG_OF_PERICENTER":76.8974,"MEAN_ANOMALY":283.2327,"EPHEMERIS_TYPE":0,"CLASSIFICATION_TYPE":"U","NORAD_CAT_ID":48213,"ELEMENT_SET_NO":999,"REV_AT_EPOCH":22406,"BSTAR":0.00044755639,"MEAN_MOTION_DOT":1.79e-6,"MEAN_MOTION_DDOT":0},{"OBJECT_NAME":"ONEWEB-0218","OBJECT_ID":"2021-031E","EPOCH":"2025-12-15T08:28:15.604032","MEAN_MOTION":13.14503555,"ECCENTRICITY":0.00018893,"INCLINATION":87.9002,"RA_OF_ASC_NODE":326.3132,"ARG_OF_PERICENTER":56.1801,"MEAN_ANOMALY":303.9508,"EPHEMERIS_TYPE":0,"CLASSIFICATION_TYPE":"U","NORAD_CAT_ID":48214,"ELEMENT_SET_NO":999,"REV_AT_EPOCH":22422,"BSTAR":-0.00049206444,"MEAN_MOTION_DOT":-1.7e-6,"MEAN_MOTION_DDOT":0},{"OBJECT_NAME":"ONEWEB-0209","OBJECT_ID":"2021-031F","EPOCH":"2025-12-15T08:12:16.331616","MEAN_MOTION":13.14503487,"ECCENTRICITY":0.00015714,"INCLINATION":87.899,"RA_OF_ASC_NODE":326.3519,"ARG_OF_PERICENTER":85.4647,"MEAN_ANOMALY":274.6662,"EPHEMERIS_TYPE":0,"CLASSIFICATION_TYPE":"U","NORAD_CAT_ID":48215,"ELEMENT_SET_NO":999,"REV_AT_EPOCH":22422,"BSTAR":1.469443e-5,"MEAN_MOTION_DOT":1.8e-7,"MEAN_MOTION_DDOT":0},{"OBJECT_NAME":"ONEWEB-0198","OBJECT_ID":"2021-031G","EPOCH":"2025-12-15T07:49:37.551648","MEAN_MOTION":13.14502803,"ECCENTRICITY":0.00014948,"INCLINATION":87.8992,"RA_OF_ASC_NODE":326.352,"ARG_OF_PERICENTER":71.6067,"MEAN_ANOMALY":288.5225,"EPHEMERIS_TYPE":0,"CLASSIFICATION_TYPE":"U","NORAD_CAT_ID":48216,"ELEMENT_SET_NO":999,"REV_AT_EPOCH":22433,"BSTAR":9.5876394e-5,"MEAN_MOTION_DOT":4.8e-7,"MEAN_MOTION_DDOT":0},{"OBJECT_NAME":"ONEWEB-0189","OBJECT_ID":"2021-031H","EPOCH":"2025-12-15T08:07:41.310048","MEAN_MOTION":13.14504232,"ECCENTRICITY":0.00015828,"INCLINATION":87.8994,"RA_OF_ASC_NODE":326.3236,"ARG_OF_PERICENTER":73.9431,"MEAN_ANOMALY":286.1873,"EPHEMERIS_TYPE":0,"CLASSIFICATION_TYPE":"U","NORAD_CAT_ID":48217,"ELEMENT_SET_NO":999,"REV_AT_EPOCH":22407,"BSTAR":-6.759998e-5,"MEAN_MOTION_DOT":-1.2e-7,"MEAN_MOTION_DDOT":0},{"OBJECT_NAME":"ONEWEB-0196","OBJECT_ID":"2021-031J","EPOCH":"2025-12-15T07:35:44.556288","MEAN_MOTION":13.14503449,"ECCENTRICITY":0.0001649,"INCLINATION":87.8991,"RA_OF_ASC_NODE":326.3418,"ARG_OF_PERICENTER":82.1262,"MEAN_ANOMALY":278.0055,"EPHEMERIS_TYPE":0,"CLASSIFICATION_TYPE":"U","NORAD_CAT_ID":48218,"ELEMENT_SET_NO":999,"REV_AT_EPOCH":22407,"BSTAR":0.00086317607,"MEAN_MOTION_DOT":3.33e-6,"MEAN_MOTION_DDOT":0},{"OBJECT_NAME":"ONEWEB-0183","OBJECT_ID":"2021-031K","EPOCH":"2025-12-15T05:09:35.274240","MEAN_MOTION":13.14504159,"ECCENTRICITY":0.00017163,"INCLINATION":87.8981,"RA_OF_ASC_NODE":326.3661,"ARG_OF_PERICENTER":91.5326,"MEAN_ANOMALY":268.6001,"EPHEMERIS_TYPE":0,"CLASSIFICATION_TYPE":"U","NORAD_CAT_ID":48219,"ELEMENT_SET_NO":999,"REV_AT_EPOCH":22415,"BSTAR":8.4764995e-5,"MEAN_MOTION_DOT":4.4e-7,"MEAN_MOTION_DDOT":0},{"OBJECT_NAME":"ONEWEB-0185","OBJECT_ID":"2021-031L","EPOCH":"2025-12-15T07:36:52.937568","MEAN_MOTION":13.14503351,"ECCENTRICITY":0.00014202,"INCLINATION":87.9003,"RA_OF_ASC_NODE":326.3224,"ARG_OF_PERICENTER":93.7408,"MEAN_ANOMALY":266.3884,"EPHEMERIS_TYPE":0,"CLASSIFICATION_TYPE":"U","NORAD_CAT_ID":48220,"ELEMENT_SET_NO":999,"REV_AT_EPOCH":22409,"BSTAR":0.00057202433,"MEAN_MOTION_DOT":2.25e-6,"MEAN_MOTION_DDOT":0},{"OBJECT_NAME":"ONEWEB-0187","OBJECT_ID":"2021-031M","EPOCH":"2025-12-15T05:18:30.305376","MEAN_MOTION":13.14506033,"ECCENTRICITY":0.00015079,"INCLINATION":87.8989,"RA_OF_ASC_NODE":326.3826,"ARG_OF_PERICENTER":84.4813,"MEAN_ANOMALY":275.6489,"EPHEMERIS_TYPE":0,"CLASSIFICATION_TYPE":"U","NORAD_CAT_ID":48221,"ELEMENT_SET_NO":999,"REV_AT_EPOCH":22409,"BSTAR":0.00046036828,"MEAN_MOTION_DOT":1.83e-6,"MEAN_MOTION_DDOT":0},{"OBJECT_NAME":"ONEWEB-0192","OBJECT_ID":"2021-031N","EPOCH":"2025-12-15T08:14:33.429408","MEAN_MOTION":13.14503032,"ECCENTRICITY":0.00017848,"INCLINATION":87.8983,"RA_OF_ASC_NODE":326.3486,"ARG_OF_PERICENTER":81.2683,"MEAN_ANOMALY":278.8649,"EPHEMERIS_TYPE":0,"CLASSIFICATION_TYPE":"U","NORAD_CAT_ID":48222,"ELEMENT_SET_NO":999,"REV_AT_EPOCH":22402,"BSTAR":-7.1425472e-5,"MEAN_MOTION_DOT":-1.4e-7,"MEAN_MOTION_DDOT":0},{"OBJECT_NAME":"ONEWEB-0219","OBJECT_ID":"2021-031P","EPOCH":"2025-12-15T07:44:51.934848","MEAN_MOTION":13.1450311,"ECCENTRICITY":0.00015063,"INCLINATION":87.8993,"RA_OF_ASC_NODE":326.3306,"ARG_OF_PERICENTER":86.6198,"MEAN_ANOMALY":273.5104,"EPHEMERIS_TYPE":0,"CLASSIFICATION_TYPE":"U","NORAD_CAT_ID":48223,"ELEMENT_SET_NO":999,"REV_AT_EPOCH":22422,"BSTAR":0.0004929772,"MEAN_MOTION_DOT":1.96e-6,"MEAN_MOTION_DDOT":0},{"OBJECT_NAME":"ONEWEB-0202","OBJECT_ID":"2021-031Q","EPOCH":"2025-12-15T07:17:26.703456","MEAN_MOTION":13.14505565,"ECCENTRICITY":0.00016357,"INCLINATION":87.8988,"RA_OF_ASC_NODE":326.3461,"ARG_OF_PERICENTER":60.2343,"MEAN_ANOMALY":299.8949,"EPHEMERIS_TYPE":0,"CLASSIFICATION_TYPE":"U","NORAD_CAT_ID":48224,"ELEMENT_SET_NO":999,"REV_AT_EPOCH":22420,"BSTAR":0.00064602958,"MEAN_MOTION_DOT":2.52e-6,"MEAN_MOTION_DDOT":0},{"OBJECT_NAME":"ONEWEB-0204","OBJECT_ID":"2021-031R","EPOCH":"2025-12-15T08:06:33.381504","MEAN_MOTION":13.14504198,"ECCENTRICITY":0.000182,"INCLINATION":87.8993,"RA_OF_ASC_NODE":326.3298,"ARG_OF_PERICENTER":94.6168,"MEAN_ANOMALY":265.517,"EPHEMERIS_TYPE":0,"CLASSIFICATION_TYPE":"U","NORAD_CAT_ID":48225,"ELEMENT_SET_NO":999,"REV_AT_EPOCH":22410,"BSTAR":6.0630773e-5,"MEAN_MOTION_DOT":3.5e-7,"MEAN_MOTION_DDOT":0},{"OBJECT_NAME":"ONEWEB-0205","OBJECT_ID":"2021-031S","EPOCH":"2025-12-15T07:31:09.995232","MEAN_MOTION":13.14503551,"ECCENTRICITY":0.00015908,"INCLINATION":87.8994,"RA_OF_ASC_NODE":326.3275,"ARG_OF_PERICENTER":85.9902,"MEAN_ANOMALY":274.141,"EPHEMERIS_TYPE":0,"CLASSIFICATION_TYPE":"U","NORAD_CAT_ID":48226,"ELEMENT_SET_NO":999,"REV_AT_EPOCH":22411,"BSTAR":0.00059110882,"MEAN_MOTION_DOT":2.32e-6,"MEAN_MOTION_DDOT":0},{"OBJECT_NAME":"ONEWEB-0206","OBJECT_ID":"2021-031T","EPOCH":"2025-12-15T05:02:44.591712","MEAN_MOTION":13.14500506,"ECCENTRICITY":0.00019613,"INCLINATION":87.9004,"RA_OF_ASC_NODE":326.3389,"ARG_OF_PERICENTER":83.2827,"MEAN_ANOMALY":276.8526,"EPHEMERIS_TYPE":0,"CLASSIFICATION_TYPE":"U","NORAD_CAT_ID":48227,"ELEMENT_SET_NO":999,"REV_AT_EPOCH":22405,"BSTAR":-0.00041103791,"MEAN_MOTION_DOT":-1.4e-6,"MEAN_MOTION_DDOT":0},{"OBJECT_NAME":"ONEWEB-0182","OBJECT_ID":"2021-031U","EPOCH":"2025-12-15T08:35:06.295200","MEAN_MOTION":13.14504145,"ECCENTRICITY":0.00017685,"INCLINATION":87.8979,"RA_OF_ASC_NODE":326.3373,"ARG_OF_PERICENTER":92.7846,"MEAN_ANOMALY":267.3486,"EPHEMERIS_TYPE":0,"CLASSIFICATION_TYPE":"U","NORAD_CAT_ID":48228,"ELEMENT_SET_NO":999,"REV_AT_EPOCH":22428,"BSTAR":-0.00043951445,"MEAN_MOTION_DOT":-1.5e-6,"MEAN_MOTION_DDOT":0}]
