ONEWEB-0179             
1 48212U 21031C   25349.22213290  .00000047  00000+0  91018-4 0  9991
2 48212  87.9002 326.3409 0001541  88.4863 271.6443 13.14503320224164
ONEWEB-0180             
1 48213U 21031D   25349.33075457  .00000179  00000+0  44756-3 0  9997
2 48213  87.9004 326.3172 0001534  76.8974 283.2327 13.14503084224066
ONEWEB-0218             
1 48214U 21031E   25349.35295838 -.00000170  00000+0 -49206-3 0  9995
2 48214  87.9002 326.3132 0001889  56.1801 303.9508 13.14503555224226
ONEWEB-0209             
1 48215U 21031F   25349.34185569  .00000018  00000+0  14694-4 0  9997
2 48215  87.8990 326.3519 0001571  85.4647 274.6662 13.14503487224221
ONEWEB-0198             
1 48216U 21031G   25349.32612907  .00000048  00000+0  95876-4 0  9991
2 48216  87.8992 326.3520 0001494  71.6067 288.5225 13.14502803224335
ONEWEB-0189             
1 48217U 21031H   25349.33867257 -.00000012  00000+0 -67600-4 0  9990
2 48217  87.8994 326.3236 0001582  73.9431 286.1873 13.14504232224072
ONEWEB-0196             
1 48218U 21031J   25349.31648792  .00000333  00000+0  86318-3 0  9990
2 48218  87.8991 326.3418 0001649  82.1262 278.0055 13.14503449224071
ONEWEB-0183             
1 48219U 21031K   25349.21499160  .00000044  00000+0  84765-4 0  9997
2 48219  87.8981 326.3661 0001716  91.5326 268.6001 13.14504159224155
ONEWEB-0185             
1 48220U 21031L   25349.31727937  .00000225  00000+0  57202-3 0  9992
2 48220  87.9003 326.3224 0001420  93.7408 266.3884 13.14503351224095
ONEWEB-0187             
1 48221U 21031M   25349.22118409  .00000183  00000+0  46037-3 0  9998
2 48221  87.8989 326.3826 0001507  84.4813 275.6489 13.14506033224093
ONEWEB-0192             
1 48222U 21031N   25349.34344247 -.00000014  00000+0 -71425-4 0  9998
2 48222  87.8983 326.3486 0001784  81.2683 278.8649 13.14503032224029
ONEWEB-0219             
1 48223U 21031P   25349.32282332  .00000196  00000+0  49298-3 0  9994
2 48223  87.8993 326.3306 0001506  86.6198 273.5104 13.14503110224221
ONEWEB-0202             
1 48224U 21031Q   25349.30378129  .00000252  00000+0  64603-3 0  9993
2 48224  87.8988 326.3461 0001635  60.2343 299.8949 13.14505565224203
ONEWEB-0204             
1 48225U 21031R   25349.33788636  .00000035  00000+0  60631-4 0  9992
2 48225  87.8993 326.3298 0001820  94.6168 265.5170 13.14504198224106
ONEWEB-0205             
1 48226U 21031S   25349.31331013  .00000232  00000+0  59111-3 0  9993
2 48226  87.8994 326.3275 0001590  85.9902 274.1410 13.14503551224112
ONEWEB-0206             
1 48227U 21031T   25349.21023833 -.00000140  00000+0 -41104-3 0  9994
2 48227  87.9004 326.3389 0001961  83.2827 276.8526 13.14500506224058
ONEWEB-0182             
1 48228U 21031U   25349.35771175 -.00000150  00000+0 -43951-3 0  9992
2 48228  87.8979 326.3373 0001768  92.7846 267.3486 13.14504145224281
